[{"OBJECT_NAME":"STARLINK-3813","OBJECT_ID":"2022-049AH","EPOCH":"2026-03-09T04:14:08.384352","MEAN_MOTION":15.08838651,"ECCENTRICITY":0.00013729,"INCLINATION":53.2177,"RA_OF_ASC_NODE":51.4238,"ARG_OF_PERICENTER":91.1282,"MEAN_ANOMALY":268.9867,"EPHEMERIS_TYPE":0,"CLASSIFICATION_TYPE":"U","NORAD_CAT_ID":52482,"ELEMENT_SET_NO":999,"REV_AT_EPOCH":21231,"BSTAR":3.372545e-5,"MEAN_MOTION_DOT":2.49e-6,"MEAN_MOTION_DDOT":0},{"OBJECT_NAME":"CZ-6A DEB","OBJECT_ID":"2022-151VT","EPOCH":"2026-03-09T17:17:01.578624","MEAN_MOTION":15.13055612,"ECCENTRICITY":0.00307053,"INCLINATION":98.6048,"RA_OF_ASC_NODE":145.9599,"ARG_OF_PERICENTER":176.0049,"MEAN_ANOMALY":184.143,"EPHEMERIS_TYPE":0,"CLASSIFICATION_TYPE":"U","NORAD_CAT_ID":55202,"ELEMENT_SET_NO":999,"REV_AT_EPOCH":17179,"BSTAR":0.0062201193,"MEAN_MOTION_DOT":0.00112789,"MEAN_MOTION_DDOT":0}]
